42959,IRIDIUM 119,2017,100.4,860.0,+,86.39,Active,1,LEO,USA,USA,Commercial/Government,Communications,Falcon,1 42959U 17061E   24265.48901544  .00000354  00000+0  11951-3 0  9999,2 42959  86.3920 290.0598 0001921  94.5297 265.6118 14.34217860363985,14.3421786,0.0001921,LEO
42960,IRIDIUM 107,2017,100.4,860.0,+,86.39,Active,1,LEO,USA,USA,Commercial/Government,Communications,Falcon,1 42960U 17061F   24265.85688347  .00000212  00000+0  68666-4 0  9994,2 42960  86.3919 289.9232 0002013  98.4663 261.6761 14.34218842364050,14.34218842,0.0002013,LEO
42961,IRIDIUM 132,2017,100.4,860.0,+,86.39,Active,1,LEO,USA,USA,Commercial/Government,Communications,Falcon,1 42961U 17061G   24265.51438329  .00000372  00000+0  12572-3 0  9992,2 42961  86.3919 290.0505 0002087 102.4914 257.6516 14.34216724363995,14.34216724,0.0002087,LEO
42962,IRIDIUM 136,2017,100.4,860.0,+,86.39,Active,1,LEO,USA,USA,Commercial/Government,Communications,Falcon,1 42962U 17061H   24265.54608596  .00000140  00000+0  42870-4 0  9999,2 42962  86.3920 290.0410 0002140  90.7326 269.4115 14.34214572364018,14.34214572,0.000214,LEO
42963,IRIDIUM 139,2017,100.4,860.0,+,86.39,Active,1,LEO,USA,USA,Commercial/Government,Communications,Falcon,1 42963U 17061J   24265.48267179  .00000381  00000+0  12888-3 0  9993,2 42963  86.3921 290.1191 0002056 101.0950 259.0477 14.34218449364015,14.34218449,0.0002056,LEO
42964,IRIDIUM 125,2017,100.4,860.0,+,86.39,Active,1,LEO,USA,USA,Commercial/Government,Communications,Falcon,1 42964U 17061K   24265.46998617  .00000542  00000+0  18641-3 0  9992,2 42964  86.3923 290.1741 0001599  92.4254 267.7125 14.34217395364026,14.34217395,0.0001599,LEO
43070,IRIDIUM 135,2017,100.4,860.0,+,86.4,Active,1,LEO,USA,USA,Commercial/Government,Communications,Falcon,1 43070U 17083A   24265.44410464  .00000833  00000+0  29017-3 0  9994,2 43070  86.3974 226.8203 0002692  86.6903 273.4601 14.34221191353313,14.34221191,0.0002692,LEO
43071,IRIDIUM 138,2017,100.4,860.0,+,86.4,Active,1,LEO,USA,USA,Commercial/Government,Communications,Falcon,1 43071U 17083B   24265.39971300  .00000440  00000+0  15002-3 0  9993,2 43071  86.3961 226.5441 0002079  77.0077 283.1351 14.34218218353299,14.34218218,0.0002079,LEO
